1 23560U 95021A   04259.44525129  .00000226  00000-0  10000-3 0  9999
2 23560 098.5456 331.9232 0001181 098.0611 262.0765 14.32254753491754
1 23560U 95021A   04259.79455025  .00000214  00000-0  95672-4 0  9990
2 23560 098.5457 332.2673 0001251 101.1286 259.0039 14.32254683491808
1 23560U 95021A   04259.93427023 +.00000027 +00000-0 +26028-4 0  9994
2 23560 098.5456 332.4045 0001295 105.1970 254.9339 14.32253940491828
1 23560U 95021A   04260.14385062  .00000122  00000-0  61331-4 0  9997
2 23560 098.5457 332.6111 0001285 105.3390 254.7951 14.32254415491851
1 23560U 95021A   04260.35343020  .00000153  00000-0  72975-4 0  9998
2 23560 098.5456 332.8178 0001277 104.9824 255.1501 14.32254646491888
1 23560U 95021A   04260.56301027  .00000188  00000-0  86063-4 0  9993
2 23560 098.5451 333.0243 0001258 100.9972 259.1354 14.32254875491916
1 23560U 95021A   04260.84245012  .00000045  00000-0  32750-4 0  9991
2 23560 098.5451 333.2995 0001308 103.4665 256.6636 14.32254251491952
1 23560U 95021A   04261.19175061  .00000008  00000-0  19085-4 0  9991
2 23560 098.5449 333.6440 0001296 107.5327 252.6010 14.32254263492006
1 23560U 95021A   04261.47119065 -.00000161  00000-0 -43672-4 0  9995
2 23560 098.5451 333.9193 0001143 104.0969 256.0314 14.32253277492045
1 23560U 95021A   04261.89035344 -.00000887 +00000-0 -31278-3 0  9991
2 23560 098.5455 334.3332 0001290 101.3986 258.7273 14.32249415492100
1 23560U 95021A   04262.86840115 -.00001863 +00000-0 -67518-3 0  9990
2 23560 098.5455 335.2973 0001215 098.1454 261.9854 14.32243420492247
1 23560U 95021A   04263.91630756 -.00001031 +00000-0 -36625-3 0  9997
2 23560 098.5445 336.3306 0001235 098.7330 261.4035 14.32244238492399
1 23560U 95021A   04264.47518926 -.00000206  00000-0 -60107-4 0  9999
2 23560 098.5445 336.8810 0001146 099.2283 260.9075 14.32246801492473
1 23560U 95021A   04264.82448999 -.00000150  00000-0 -39343-4 0  9996
2 23560 098.5444 337.2251 0001222 100.0420 260.0877 14.32246750492525
1 23560U 95021A   04265.03407168 -.00000021  00000-0  82915-5 0  9993
2 23560 098.5447 337.4310 0001241 099.4593 260.6732 14.32247040492551
1 23560U 95021A   04265.24365276  .00000208  00000-0  93270-4 0  9990
2 23560 098.5448 337.6378 0001208 103.6269 256.5107 14.32248190492589
1 23560U 95021A   04265.45323253  .00000178  00000-0  82045-4 0  9996
2 23560 098.5449 337.8443 0001214 103.8147 256.3169 14.32248184492612
1 23560U 95021A   04265.80253381  .00000174  00000-0  80867-4 0  9995
2 23560 098.5447 338.1880 0001239 104.4250 255.7057 14.32248322492666
1 23560U 95021A   04265.87239441 +.00000124 +00000-0 +61982-4 0  9995
2 23560 098.5442 338.2569 0001271 106.5154 253.6149 14.32247905492674
1 23560U 95021A   04266.08197582  .00000072  00000-0  42705-4 0  9992
2 23560 098.5441 338.4634 0001280 105.9443 254.1880 14.32247799492705
1 23560U 95021A   04266.50113766  .00000023  00000-0  24871-4 0  9991
2 23560 098.5447 338.8766 0001183 103.7164 256.4159 14.32247831492766
1 23560U 95021A   04266.85043928  .00000014  00000-0  21467-4 0  9999
2 23560 098.5441 339.2200 0001275 106.9242 253.2080 14.32247819492812
1 23560U 95021A   04266.85043931  .00000014  00000-0  21467-4 0  9993
2 23560 098.5439 339.2194 0001318 113.5116 246.6206 14.32247911492812
1 23560U 95021A   04266.92029965 -.00000112  00000-0 -25513-4 0  9999
2 23560 098.5442 339.2890 0001254 108.4839 251.6474 14.32247346492829
1 23560U 95021A   04266.99016013 -.00000112  00000-0 -25513-4 0  9996
2 23560 098.5442 339.3579 0001254 108.2777 251.8543 14.32247337492833
1 23560U 95021A   04267.40932227 -.00000112  00000-0 -25513-4 0  9997
2 23560 098.5442 339.7707 0001254 107.0406 253.0910 14.32247212492896
1 23560U 95021A   04267.75862337  .00000012  00000-0  20664-4 0  9998
2 23560 098.5440 340.1148 0001201 101.5318 258.5988 14.32247962492945
1 23560U 95021A   04267.89834425 -.00000045 +00000-0 -70568-6 0  9998
2 23560 098.5442 340.2526 0001214 103.2643 256.8663 14.32247620492966
1 23560U 95021A   04267.96820484 -.00000045  00000-0 -70568-6 0  9996
2 23560 098.5442 340.3214 0001214 103.0581 257.0738 14.32247620492977
1 23560U 95021A   04268.45722722  .00000285  00000-0  12194-3 0  9999
2 23560 098.5442 340.8032 0001098 107.6324 252.5064 14.32249397493049
1 23560U 95021A   04268.52708583  .00000114  00000-0  58331-4 0  9991
2 23560 098.5450 340.8728 0001193 092.8914 267.2364 14.32248730493053
1 23560U 95021A   04268.87638794  .00000132  00000-0  65028-4 0  9996
2 23560 098.5451 341.2166 0001203 092.1198 268.0117 14.32248942493100
1 23560U 95021A   04268.94624835 +.00000095 +00000-0 +51576-4 0  9996
2 23560 098.5454 341.2853 0001246 094.0198 266.1113 14.32248653493119
1 23560U 95021A   04269.15582948  .00000092  00000-0  50410-4 0  9991
2 23560 098.5455 341.4918 0001245 093.9932 266.1394 14.32248695493147
1 23560U 95021A   04269.29555005  .00000083  00000-0  47099-4 0  9999
2 23560 098.5455 341.6300 0001234 097.0744 263.0591 14.32248695493165
1 23560U 95021A   04269.43527050  .00000098  00000-0  52520-4 0  9995
2 23560 098.5450 341.7672 0001209 096.2327 263.9001 14.32248824493184
1 23560U 95021A   04269.71471124  .00000136  00000-0  66753-4 0  9992
2 23560 098.5447 342.0425 0001202 095.5454 264.5863 14.32249188493228
1 23560U 95021A   04269.85443182  .00000096  00000-0  51650-4 0  9995
2 23560 098.5445 342.1794 0001244 098.6992 261.4324 14.32248924493240
1 23560U 95021A   04270.13387320  .00000078  00000-0  44981-4 0  9998
2 23560 098.5447 342.4547 0001266 100.2824 259.8503 14.32248837493286
1 23560U 95021A   04270.41331432  .00000064  00000-0  40076-4 0  9998
2 23560 098.5447 342.7299 0001236 103.5271 256.6065 14.32248876493328
1 23560U 95021A   04270.83247564  .00000085  00000-0  47820-4 0  9993
2 23560 098.5445 343.1428 0001199 103.3197 256.8116 14.32248983493382
1 23560U 95021A   04270.90233599 +.00000080 +00000-0 +46002-4 0  9990
2 23560 098.5445 343.2115 0001200 103.6938 256.4377 14.32248951493396
1 23560U 95021A   04271.18177708  .00000125  00000-0  62509-4 0  9990
2 23560 098.5448 343.4865 0001176 106.2239 253.9101 14.32249356493430
1 23560U 95021A   04271.53107835  .00000015  00000-0  21858-4 0  9993
2 23560 098.5451 343.8313 0001115 105.2840 254.8480 14.32248873493484
1 23560U 95021A   04271.81051910  .00000085  00000-0  47701-4 0  9998
2 23560 098.5450 344.1062 0001176 102.8979 257.2337 14.32249293493521
1 23560U 95021A   04272.08996074 -.00000025  00000-0  69994-5 0  9991
2 23560 098.5452 344.3816 0001203 101.5148 258.6162 14.32248648493565
1 23560U 95021A   04272.36940207  .00000221  00000-0  98163-4 0  9995
2 23560 098.5452 344.6573 0001214 107.7882 252.3486 14.32249736493607
1 23560U 95021A   04272.50912156  .00000167  00000-0  78112-4 0  9994
2 23560 098.5455 344.7951 0001167 105.5090 254.6222 14.32249613493624
1 23560U 95021A   04272.78856280  .00000044  00000-0  32536-4 0  9993
2 23560 098.5449 345.0697 0001177 102.3726 257.7575 14.32249173493660
1 23560U 95021A   04273.06800464 -.00000152  00000-0 -40187-4 0  9991
2 23560 098.5451 345.3452 0001196 104.7889 255.3427 14.32248286493701
1 23560U 95021A   04273.48716578  .00000035  00000-0  29042-4 0  9994
2 23560 098.5447 345.7581 0001170 103.9866 256.1453 14.32249179493767
1 23560U 95021A   04273.83646717 -.00000089  00000-0 -16936-4 0  9999
2 23560 098.5446 346.1022 0001181 104.3133 255.8176 14.32248682493817
1 23560U 95021A   04273.97618788 -.00000211 +00000-0 -62192-4 0  9993
2 23560 098.5446 346.2403 0001174 105.0931 255.0374 14.32248198493833
